#aV2008 12 13  0  0   .00000000      96 DD+AD WGS84 FIT  NGA
## 1509 518400.00000000   900.00000000 54813  .0000000000000
+   31     2  3  4  5  6  7  8  9 10 11 12 13 14 15 16 17 18
+         19 20 21 22 23 24 25 26 27 28 29 30 31 32  0  0  0
+          0  0  0  0  0  0  0  0  0  0  0  0  0  0  0  0  0
+          0  0  0  0  0  0  0  0  0  0  0  0  0  0  0  0  0
+          0  0  0  0  0  0  0  0  0  0  0  0  0  0  0  0  0
++         0  0  0  0  0  0  0  0  0  0  0  0  0  0  0  0  0
++         0  0  0  0  0  0  0  0  0  0  0  0  0  0  0  0  0
++         0  0  0  0  0  0  0  0  0  0  0  0  0  0  0  0  0
++         0  0  0  0  0  0  0  0  0  0  0  0  0  0  0  0  0
++         0  0  0  0  0  0  0  0  0  0  0  0  0  0  0  0  0
%c cc cc ccc ccc cccc cccc cccc cccc ccccc ccccc ccccc ccccc
%c cc cc ccc ccc cccc cccc cccc cccc ccccc ccccc ccccc ccccc
%f  0.0000000  0.000000000  0.00000000000  0.000000000000000
%f  0.0000000  0.000000000  0.00000000000  0.000000000000000
%i    0    0    0    0      0      0      0      0         0
%i    0    0    0    0      0      0      0      0         0
/*      NGA, ST. LOUIS,MO.                                  
/*   EPHEMERIS COMPUTED FROM  3 DAYS OF DATA                
/* CCCCCCCCCCCCCCCCCCCCCCCCCCCCCCCCCCCCCCCCCCCCCCCCCCCCCCCCC
/* CCCCCCCCCCCCCCCCCCCCCCCCCCCCCCCCCCCCCCCCCCCCCCCCCCCCCCCCC
*  2008 12 13 12 45   .00000000                                                 
P  2 -20951.732813   9721.804039 -12892.202988    167.320380                    
V  2   8536.208592 -14267.347896 -25258.655953      -.022396                    
P  3  15284.606014  -4521.638074  20969.069394    324.172250                    
V  3  11221.354173  25039.366135  -2388.201505       .052431                    
P  4 -16896.532389  -3487.879735 -20402.980188   -263.334185                    
V  4  16541.761982 -19579.340203 -10043.028235      -.127398                    
P  5  -4307.123008  15239.273135 -21610.386061   -386.108467                    
V  5 -26609.177884  -3350.072396   3104.539522       .172653                    
P  6  16655.345975    313.145109  20875.047553    122.798226                    
V  6   8491.761250  24789.383571  -7193.517004      -.095718                    
P  7   1253.711887 -19732.024314  17664.136554     23.527770                    
V  7  16224.175011 -15669.703818 -18739.257248       .000314                    
P  8 -10367.409942 -10308.134810  22110.701458   -181.942118                    
V  8  20093.166444 -19721.909548   -254.941734      -.013759                    
P  9 -13812.331220  22136.373709  -5249.726417     29.477370                    
V  9  -5553.039208   3006.749160  31209.518137       .019344                    
P 10 -23999.410208   2496.089752  11331.657098     -8.265290                    
V 10 -13605.727221  -5443.664728 -26935.660390      -.004108                    
P 11  10007.971615 -24061.175389  -4255.140543     13.380378                    
V 11   7155.191766  -1977.015594  29666.062469      -.009515                    
P 12  -9389.430210  12937.286885 -21123.416906   -334.138921                    
V 12 -26252.034245  -6312.495178   7871.975222       .028199                    
P 13  -4259.214996 -25915.870586  -4117.054463    280.919067                    
V 13   2938.342157   4450.710680 -31929.973539       .014460                    
P 14  14975.151015  15868.808156 -15105.475762   -182.431736                    
V 14   4074.509925  18909.982975  23607.493427       .049618                    
P 15  -9453.569288  15162.962938  19672.903861   -225.989418                    
V 15  -9287.095338 -23172.232781  13455.683162      -.059698                    
P 16  25963.258258   1795.479818   5914.944489     89.244033                    
V 16   6673.367722   3928.634103 -30577.316024      -.025343                    
P 17 -14944.763896 -18011.134239 -12682.900144     41.987369                    
V 17  -2682.586290 -16042.406569  25671.866834       .006440                    
P 18  12326.810363  16066.707637  17578.632781   -103.504264                    
V 18 -21598.379909  -3532.653494  18234.512823       .037575                    
P 19   9722.295808 -15925.406092  18882.534499     34.939405                    
V 19   7343.147942  22830.142288  15742.672994      -.003368                    
P 20   5803.413348 -14701.388095 -21460.868057     96.517325                    
V 20  26504.658223   5349.991335   3566.797833      -.010488                    
P 21   4186.966695  17084.718467  19948.919114     38.570598                    
V 21 -18319.179889  17264.752759 -11683.092084      -.016629                    
P 22  22163.045854  11996.113779   8640.136560    208.159683                    
V 22 -11174.637562    329.495978  28684.754388      -.003872                    
P 23   1393.813895 -23316.994609 -12430.365753    382.585387                    
V 23   6995.660950  14335.980027 -26466.675577       .009674                    
P 24 -10573.193802  21917.889312  11105.773878    148.925158                    
V 24 -11446.233036   8101.090378 -26964.280987       .032953                    
P 25   6088.963211 -22872.191908  12590.771143     97.030839                    
V 25  10638.743728 -11213.593762 -26091.392651       .285944                    
P 26 -12344.817061   8070.106633  21523.804619     25.798151                    
V 26  -8105.124286 -27368.970062   5993.480562       .039835                    
P 27  -7975.779498 -13914.785470  21847.860920      7.599394                    
V 27  16630.519789 -20149.836835  -7086.740522       .029826                    
P 28 -21060.589931 -12732.667552  10816.360731    -23.746406                    
V 28  13117.993566   1105.453950  27564.583883       .000161                    
P 29   4240.040377  25763.332334  -4877.850537    -25.095733                    
V 29  -4495.414471  -5237.687323 -30887.925375       .021023                    
P 30   5535.246159  16004.010229 -20840.841003    113.357787                    
V 30 -25456.770833  -3374.539227  -9435.717287       .022018                    
P 31  17735.022895    234.722601 -19593.601940    -43.272728                    
V 31 -15990.467006  19610.213247 -13975.610223      -.017404                    
P 32  14200.918027  -9909.538782 -19654.545958    309.958852                    
V 32  24473.472100   8675.877397  13247.957111      -.020301                    
EOF
